RBSP A
1 99991U          12153.00000000 -.00000006  00000-0  00000-0 0 00009
2 99991 009.9808 186.1894 6824413 012.0712 110.1573 02.67198139000375
OutputFile:RBSP_A_20120601.txt
ISO Start Date/Time:2012-06-01T00:00:00
ISO End   Date/Time:2012-06-02T00:00:00
Cadence in seconds:300
Internal Field Model:IGRF
External Field Model:T89
Kp:4.3
Dst:-20
PitchAngles:18 5 10 15 20 25 30 35 40 45 50 55 60 65 70 75 80 85 90
Footpoint Height:100.0
Colorize:True
